GLOBALSTAR M057 [-]     
1 25943U 99058A   24091.88186808 -.00000068  00000+0  22932-3 0  9992
2 25943  51.9972 163.4161 0002825 173.7832 186.3053 12.24782781112730
GLOBALSTAR M059 [-]     
1 25944U 99058B   24091.95713976 -.00000113  00000+0 -32632-3 0  9993
2 25944  52.0038 323.5278 0000912 106.3631 356.4732 11.99961628520959
GLOBALSTAR M056 [-]     
1 25945U 99058C   24092.41081903 -.00000049  00000+0  44723-3 0  9995
2 25945  51.9990 335.6074 0001556  38.2657 132.7398 12.04772753109423
GLOBALSTAR M031 [-]     
1 25946U 99058D   24091.88039674  .00000023  00000+0  11477-2 0  9994
2 25946  51.9947 255.8495 0001489  34.0507 113.6545 12.16004969110737
GLOBALSTAR M039 [-]     
1 25961U 99062A   24091.93695116 -.00000065  00000+0  21754-3 0  9998
2 25961  51.9837 175.6797 0003205  93.9617 266.1616 12.62285794124365
GLOBALSTAR M034 [-]     
1 25962U 99062B   24091.75700274 -.00000075  00000+0  84701-4 0  9994
2 25962  51.9860  81.4246 0013970 286.0399 246.1409 11.79426110 86188
GLOBALSTAR M029 [-]     
1 25963U 99062C   24092.03537373 -.00000065  00000+0  26329-3 0  9995
2 25963  51.9792 211.7300 0001957 338.4294 193.3034 11.99875794116099
GLOBALSTAR M061 [-]     
1 25964U 99062D   24091.73930263 -.00000052  00000+0  45695-3 0  9990
2 25964  51.9778 259.6465 0005839 205.3426 167.4773 11.76759151 69091
